[
    {
        "Altitude(m)": 555226.4315236681,
        "Argument of Periapsis(deg)": 0.013245982221427002,
        "Eccentricity": 0.0,
        "Inclination(deg)": 53.0,
        "Latitude(deg)": 31.12443503523409,
        "Longitude(deg)": -164.6711004442386,
        "Mean Anomaly(deg)": 40.183185735155185,
        "RAAN(deg)": 269.9802867370561,
        "Satellite Name": "Starlink Shell 1 1189",
        "Satellite Number": 1189,
        "Semi-Major Axis(m)": 6931778.249405717,
        "Time(s)": 380
    },
    {
        "Altitude(m)": 555302.6112050987,
        "Argument of Periapsis(deg)": 0.013594560700938237,
        "Eccentricity": 0.0,
        "Inclination(deg)": 53.0,
        "Latitude(deg)": 31.571746630395243,
        "Longitude(deg)": -164.1967874574712,
        "Mean Anomaly(deg)": 40.81001693871193,
        "RAAN(deg)": 269.97976796697856,
        "Satellite Name": "Starlink Shell 1 1189",
        "Satellite Number": 1189,
        "Semi-Major Axis(m)": 6931778.249405717,
        "Time(s)": 390
    },
    {
        "Altitude(m)": 555379.6639344991,
        "Argument of Periapsis(deg)": 0.013943139180449475,
        "Eccentricity": 0.0,
        "Inclination(deg)": 53.0,
        "Latitude(deg)": 32.016927270799634,
        "Longitude(deg)": -163.71754443875818,
        "Mean Anomaly(deg)": 41.43684814226857,
        "RAAN(deg)": 269.97924919690104,
        "Satellite Name": "Starlink Shell 1 1189",
        "Satellite Number": 1189,
        "Semi-Major Axis(m)": 6931778.249405717,
        "Time(s)": 400
    },
    {
        "Altitude(m)": 555457.5348727587,
        "Argument of Periapsis(deg)": 0.014291717659960712,
        "Eccentricity": 0.0,
        "Inclination(deg)": 53.0,
        "Latitude(deg)": 32.45991988978597,
        "Longitude(deg)": -163.23326081080612,
        "Mean Anomaly(deg)": 42.06367934582532,
        "RAAN(deg)": 269.97873042682363,
        "Satellite Name": "Starlink Shell 1 1189",
        "Satellite Number": 1189,
        "Semi-Major Axis(m)": 6931778.249405717,
        "Time(s)": 410
    },
    {
        "Altitude(m)": 555536.168968562,
        "Argument of Periapsis(deg)": 0.014640296139471948,
        "Eccentricity": 0.0,
        "Inclination(deg)": 53.0,
        "Latitude(deg)": 32.90066610700863,
        "Longitude(deg)": -162.74382532000055,
        "Mean Anomaly(deg)": 42.69051054938202,
        "RAAN(deg)": 269.97821165674617,
        "Satellite Name": "Starlink Shell 1 1189",
        "Satellite Number": 1189,
        "Semi-Major Axis(m)": 6931778.249405717,
        "Time(s)": 420
    },
    {
        "Altitude(m)": 555615.5109871501,
        "Argument of Periapsis(deg)": 0.014988874618983185,
        "Eccentricity": 0.0,
        "Inclination(deg)": 53.0,
        "Latitude(deg)": 33.33910619552927,
        "Longitude(deg)": -162.24912557180753,
        "Mean Anomaly(deg)": 43.317341752938766,
        "RAAN(deg)": 269.97769288666865,
        "Satellite Name": "Starlink Shell 1 1189",
        "Satellite Number": 1189,
        "Semi-Major Axis(m)": 6931778.249405717,
        "Time(s)": 430
    },
    {
        "Altitude(m)": 555695.5055391174,
        "Argument of Periapsis(deg)": 0.015337453098494424,
        "Eccentricity": 0.0,
        "Inclination(deg)": 53.0,
        "Latitude(deg)": 33.77517904885226,
        "Longitude(deg)": -161.7490475723242,
        "Mean Anomaly(deg)": 43.944172956495514,
        "RAAN(deg)": 269.97717411659124,
        "Satellite Name": "Starlink Shell 1 1189",
        "Satellite Number": 1189,
        "Semi-Major Axis(m)": 6931778.249405717,
        "Time(s)": 440
    },
    {
        "Altitude(m)": 555776.0971092482,
        "Argument of Periapsis(deg)": 0.01568603157800566,
        "Eccentricity": 0.0,
        "Inclination(deg)": 53.0,
        "Latitude(deg)": 34.20882214798192,
        "Longitude(deg)": -161.2434767892878,
        "Mean Anomaly(deg)": 44.571004160052155,
        "RAAN(deg)": 269.9766553465137,
        "Satellite Name": "Starlink Shell 1 1189",
        "Satellite Number": 1189,
        "Semi-Major Axis(m)": 6931778.249405717,
        "Time(s)": 450
    },
    {
        "Altitude(m)": 555857.2300853528,
        "Argument of Periapsis(deg)": 0.0160346100575169,
        "Eccentricity": 0.0,
        "Inclination(deg)": 53.0,
        "Latitude(deg)": 34.63997152857911,
        "Longitude(deg)": -160.73229770725322,
        "Mean Anomaly(deg)": 45.197835363608895,
        "RAAN(deg)": 269.97613657643626,
        "Satellite Name": "Starlink Shell 1 1189",
        "Satellite Number": 1189,
        "Semi-Major Axis(m)": 6931778.249405717,
        "Time(s)": 460
    },
    {
        "Altitude(m)": 555938.8487871224,
        "Argument of Periapsis(deg)": 0.016383188537028134,
        "Eccentricity": 0.0,
        "Inclination(deg)": 53.0,
        "Latitude(deg)": 35.06856174831158,
        "Longitude(deg)": -160.21539339028854,
        "Mean Anomaly(deg)": 45.82466656716559,
        "RAAN(deg)": 269.9756178063588,
        "Satellite Name": "Starlink Shell 1 1189",
        "Satellite Number": 1189,
        "Semi-Major Axis(m)": 6931778.249405717,
        "Time(s)": 470
    },
    {
        "Altitude(m)": 556020.89749496,
        "Argument of Periapsis(deg)": 0.01673176701653937,
        "Eccentricity": 0.0,
        "Inclination(deg)": 53.0,
        "Latitude(deg)": 35.494525854501866,
        "Longitude(deg)": -159.6926465655586,
        "Mean Anomaly(deg)": 46.45149777072234,
        "RAAN(deg)": 269.9750990362813,
        "Satellite Name": "Starlink Shell 1 1189",
        "Satellite Number": 1189,
        "Semi-Major Axis(m)": 6931778.249405717,
        "Time(s)": 480
    },
    {
        "Altitude(m)": 556103.3204787942,
        "Argument of Periapsis(deg)": 0.017080345496050607,
        "Eccentricity": 0.0,
        "Inclination(deg)": 53.0,
        "Latitude(deg)": 35.917795352177876,
        "Longitude(deg)": -159.16393920256525,
        "Mean Anomaly(deg)": 47.078328974279046,
        "RAAN(deg)": 269.9745802662038,
        "Satellite Name": "Starlink Shell 1 1189",
        "Satellite Number": 1189,
        "Semi-Major Axis(m)": 6931778.249405717,
        "Time(s)": 490
    },
    {
        "Altitude(m)": 556186.0620268374,
        "Argument of Periapsis(deg)": 0.017428923975561842,
        "Eccentricity": 0.0,
        "Inclination(deg)": 53.0,
        "Latitude(deg)": 36.3383001726497,
        "Longitude(deg)": -158.62915210145383,
        "Mean Anomaly(deg)": 47.70516017783573,
        "RAAN(deg)": 269.97406149612635,
        "Satellite Name": "Starlink Shell 1 1189",
        "Satellite Number": 1189,
        "Semi-Major Axis(m)": 6931778.249405717,
        "Time(s)": 500
    },
    {
        "Altitude(m)": 556269.0664742979,
        "Argument of Periapsis(deg)": 0.01777750245507308,
        "Eccentricity": 0.0,
        "Inclination(deg)": 53.0,
        "Latitude(deg)": 36.75596864274725,
        "Longitude(deg)": -158.08816600380916,
        "Mean Anomaly(deg)": 48.33199138139248,
        "RAAN(deg)": 269.9735427260489,
        "Satellite Name": "Starlink Shell 1 1189",
        "Satellite Number": 1189,
        "Semi-Major Axis(m)": 6931778.249405717,
        "Time(s)": 510
    },
    {
        "Altitude(m)": 556352.278232032,
        "Argument of Periapsis(deg)": 0.018126080934584315,
        "Eccentricity": 0.0,
        "Inclination(deg)": 53.0,
        "Latitude(deg)": 37.17072745485636,
        "Longitude(deg)": -157.5408612007649,
        "Mean Anomaly(deg)": 48.958822584949175,
        "RAAN(deg)": 269.97302395597137,
        "Satellite Name": "Starlink Shell 1 1189",
        "Satellite Number": 1189,
        "Semi-Major Axis(m)": 6931778.249405717,
        "Time(s)": 520
    },
    {
        "Altitude(m)": 556435.6418150921,
        "Argument of Periapsis(deg)": 0.018474659414095554,
        "Eccentricity": 0.0,
        "Inclination(deg)": 53.0,
        "Latitude(deg)": 37.5825016379124,
        "Longitude(deg)": -156.9871171518807,
        "Mean Anomaly(deg)": 49.58565378850592,
        "RAAN(deg)": 269.97250518589397,
        "Satellite Name": "Starlink Shell 1 1189",
        "Satellite Number": 1189,
        "Semi-Major Axis(m)": 6931778.249405717,
        "Time(s)": 530
    },
    {
        "Altitude(m)": 556519.1018711908,
        "Argument of Periapsis(deg)": 0.018823237893606792,
        "Eccentricity": 0.0,
        "Inclination(deg)": 53.0,
        "Latitude(deg)": 37.991214529520846,
        "Longitude(deg)": -156.42681362825797,
        "Mean Anomaly(deg)": 50.21248499206262,
        "RAAN(deg)": 269.9719864158165,
        "Satellite Name": "Starlink Shell 1 1189",
        "Satellite Number": 1189,
        "Semi-Major Axis(m)": 6931778.249405717,
        "Time(s)": 540
    },
    {
        "Altitude(m)": 556602.6032090579,
        "Argument of Periapsis(deg)": 0.019171816373118027,
        "Eccentricity": 0.0,
        "Inclination(deg)": 53.0,
        "Latitude(deg)": 38.39678774938242,
        "Longitude(deg)": -155.85983035475033,
        "Mean Anomaly(deg)": 50.83931619561931,
        "RAAN(deg)": 269.971467645739,
        "Satellite Name": "Starlink Shell 1 1189",
        "Satellite Number": 1189,
        "Semi-Major Axis(m)": 6931778.249405717,
        "Time(s)": 550
    },
    {
        "Altitude(m)": 556686.0908266589,
        "Argument of Periapsis(deg)": 0.019520394852629266,
        "Eccentricity": 0.0,
        "Inclination(deg)": 53.0,
        "Latitude(deg)": 38.79914117421939,
        "Longitude(deg)": -155.28604666475772,
        "Mean Anomaly(deg)": 51.46614739917606,
        "RAAN(deg)": 269.9709488756615,
        "Satellite Name": "Starlink Shell 1 1189",
        "Satellite Number": 1189,
        "Semi-Major Axis(m)": 6931778.249405717,
        "Time(s)": 560
    }
]